STARLINK-31921          
1 59868U 24098L   26068.50810017 -.00003771  00000+0 -12766-3 0  9997
2 59868  43.0058 238.6667 0001977 279.3579  80.7049 15.27557354102276
AL MUNTHER              
1 63240U 25052AG  26068.64540749  .00017933  00000+0  65015-3 0  9992
2 63240  97.4001 323.9152 0008027 130.7043 229.4895 15.28381521 54798
